ONEWEB-0228             
1 48780U 21045P   24276.33682074  .00000053  00000+0  10662-3 0  9998
2 48780  87.9115  23.1337 0001888 104.7659 255.3680 13.15546935162433
